{
  "type": "FeatureCollection",
  "features": [
    {
      "type": "Feature",
      "properties": {
        "norad_id": 38755,
        "name": "SPOT 6",
        "group": "resource",
        "lat": 22.61345140090391,
        "lon": -116.47092575601785,
        "alt_km": 697.3672501904521,
        "timestamp": "2025-12-21T11:31:42.498765+00:00",
        "meta_object_name": "SPOT 6",
        "meta_object_id": "2012-047A",
        "meta_epoch": "2025-12-21T04:13:30.416736",
        "meta_mean_motion": 14.5853899,
        "meta_eccentricity": 0.0001303,
        "meta_inclination": 98.1568,
        "meta_ra_of_asc_node": 59.8054,
        "meta_arg_of_pericenter": 78.9911,
        "meta_mean_anomaly": 281.1435,
        "meta_ephemeris_type": 0,
        "meta_classification_type": "U",
        "meta_norad_cat_id": 38755,
        "meta_element_set_no": 999,
        "meta_rev_at_epoch": 70710,
        "meta_bstar": 5.7006e-05,
        "meta_mean_motion_dot": 2.2e-06,
        "meta_mean_motion_ddot": 0,
        "tle_line1": "1 38755U 12047A   25355.17604649  .00000220  00000+0  57006-4 0  9994",
        "tle_line2": "2 38755  98.1568  59.8054 0001303  78.9911 281.1435 14.58538990707101"
      },
      "geometry": {
        "type": "Point",
        "coordinates": [
          -116.47092575601785,
          22.61345140090391
        ]
      }
    },
    {
      "type": "Feature",
      "properties": {
        "norad_id": 39019,
        "name": "PLEIADES 1B",
        "group": "resource",
        "lat": 54.26056859454542,
        "lon": 56.465270482071396,
        "alt_km": 691.9789928497503,
        "timestamp": "2025-12-21T11:31:42.498776+00:00",
        "meta_object_name": "PLEIADES 1B",
        "meta_object_id": "2012-068A",
        "meta_epoch": "2025-12-21T04:41:27.894336",
        "meta_mean_motion": 14.58559647,
        "meta_eccentricity": 0.0001165,
        "meta_inclination": 98.1792,
        "meta_ra_of_asc_node": 67.714,
        "meta_arg_of_pericenter": 86.1052,
        "meta_mean_anomaly": 274.028,
        "meta_ephemeris_type": 0,
        "meta_classification_type": "U",
        "meta_norad_cat_id": 39019,
        "meta_element_set_no": 999,
        "meta_rev_at_epoch": 69490,
        "meta_bstar": 5.1943e-05,
        "meta_mean_motion_dot": 1.96e-06,
        "meta_mean_motion_ddot": 0,
        "tle_line1": "1 39019U 12068A   25355.19546174  .00000196  00000+0  51943-4 0  9997",
        "tle_line2": "2 39019  98.1792  67.7140 0001165  86.1052 274.0280 14.58559647694905"
      },
      "geometry": {
        "type": "Point",
        "coordinates": [
          56.465270482071396,
          54.26056859454542
        ]
      }
    },
    {
      "type": "Feature",
      "properties": {
        "norad_id": 39030,
        "name": "GOKTURK 2",
        "group": "resource",
        "lat": 74.1737760705348,
        "lon": 168.24179802552942,
        "alt_km": 636.3406623413475,
        "timestamp": "2025-12-21T11:31:42.498786+00:00",
        "meta_object_name": "GOKTURK 2",
        "meta_object_id": "2012-073A",
        "meta_epoch": "2025-12-21T04:40:24.950208",
        "meta_mean_motion": 14.75301579,
        "meta_eccentricity": 0.0001295,
        "meta_inclination": 97.6885,
        "meta_ra_of_asc_node": 196.432,
        "meta_arg_of_pericenter": 108.3178,
        "meta_mean_anomaly": 251.8173,
        "meta_ephemeris_type": 0,
        "meta_classification_type": "U",
        "meta_norad_cat_id": 39030,
        "meta_element_set_no": 999,
        "meta_rev_at_epoch": 69826,
        "meta_bstar": 7.8232e-05,
        "meta_mean_motion_dot": 4.83e-06,
        "meta_mean_motion_ddot": 0,
        "tle_line1": "1 39030U 12073A   25355.19473322  .00000483  00000+0  78232-4 0  9999",
        "tle_line2": "2 39030  97.6885 196.4320 0001295 108.3178 251.8173 14.75301579698260"
      },
      "geometry": {
        "type": "Point",
        "coordinates": [
          168.24179802552942,
          74.1737760705348
        ]
      }
    },
    {
      "type": "Feature",
      "properties": {
        "norad_id": 39084,
        "name": "LANDSAT 8",
        "group": "resource",
        "lat": 0.015573999890411094,
        "lon": -116.57337955555502,
        "alt_km": 705.4972895133724,
        "timestamp": "2025-12-21T11:31:42.498797+00:00",
        "meta_object_name": "LANDSAT 8",
        "meta_object_id": "2013-008A",
        "meta_epoch": "2025-12-21T02:27:55.320768",
        "meta_mean_motion": 14.57110319,
        "meta_eccentricity": 0.0001076,
        "meta_inclination": 98.2061,
        "meta_ra_of_asc_node": 63.0524,
        "meta_arg_of_pericenter": 91.0858,
        "meta_mean_anomaly": 269.0464,
        "meta_ephemeris_type": 0,
        "meta_classification_type": "U",
        "meta_norad_cat_id": 39084,
        "meta_element_set_no": 999,
        "meta_rev_at_epoch": 67196,
        "meta_bstar": 7.5817e-05,
        "meta_mean_motion_dot": 2.96e-06,
        "meta_mean_motion_ddot": 0,
        "tle_line1": "1 39084U 13008A   25355.10272362  .00000296  00000+0  75817-4 0  9997",
        "tle_line2": "2 39084  98.2061  63.0524 0001076  91.0858 269.0464 14.57110319671969"
      },
      "geometry": {
        "type": "Point",
        "coordinates": [
          -116.57337955555502,
          0.015573999890411094
        ]
      }
    },
    {
      "type": "Feature",
      "properties": {
        "norad_id": 39086,
        "name": "SARAL",
        "group": "resource",
        "lat": 58.390306958316174,
        "lon": 13.445840869628114,
        "alt_km": 774.9951432931912,
        "timestamp": "2025-12-21T11:31:42.498808+00:00",
        "meta_object_name": "SARAL",
        "meta_object_id": "2013-009A",
        "meta_epoch": "2025-12-21T04:15:50.726016",
        "meta_mean_motion": 14.32759687,
        "meta_eccentricity": 0.0002962,
        "meta_inclination": 98.5502,
        "meta_ra_of_asc_node": 178.9979,
        "meta_arg_of_pericenter": 92.8929,
        "meta_mean_anomaly": 267.2594,
        "meta_ephemeris_type": 0,
        "meta_classification_type": "U",
        "meta_norad_cat_id": 39086,
        "meta_element_set_no": 999,
        "meta_rev_at_epoch": 67011,
        "meta_bstar": 4.3711e-05,
        "meta_mean_motion_dot": 7.5e-07,
        "meta_mean_motion_ddot": 0,
        "tle_line1": "1 39086U 13009A   25355.17767044  .00000075  00000+0  43711-4 0  9996",
        "tle_line2": "2 39086  98.5502 178.9979 0002962  92.8929 267.2594 14.32759687670117"
      },
      "geometry": {
        "type": "Point",
        "coordinates": [
          13.445840869628114,
          58.390306958316174
        ]
      }
    },
    {
      "type": "Feature",
      "properties": {
        "norad_id": 39150,
        "name": "GAOFEN-1",
        "group": "resource",
        "lat": -13.178127054690094,
        "lon": -115.88550873889328,
        "alt_km": 641.9699141170058,
        "timestamp": "2025-12-21T11:31:42.498818+00:00",
        "meta_object_name": "GAOFEN-1",
        "meta_object_id": "2013-018A",
        "meta_epoch": "2025-12-21T04:09:07.741728",
        "meta_mean_motion": 14.76493908,
        "meta_eccentricity": 0.0018427,
        "meta_inclination": 97.9324,
        "meta_ra_of_asc_node": 65.6835,
        "meta_arg_of_pericenter": 117.4873,
        "meta_mean_anomaly": 242.8212,
        "meta_ephemeris_type": 0,
        "meta_classification_type": "U",
        "meta_norad_cat_id": 39150,
        "meta_element_set_no": 999,
        "meta_rev_at_epoch": 68197,
        "meta_bstar": 0.00010024,
        "meta_mean_motion_dot": 6.49e-06,
        "meta_mean_motion_ddot": 0,
        "tle_line1": "1 39150U 13018A   25355.17300627  .00000649  00000+0  10024-3 0  9995",
        "tle_line2": "2 39150  97.9324  65.6835 0018427 117.4873 242.8212 14.76493908681973"
      },
      "geometry": {
        "type": "Point",
        "coordinates": [
          -115.88550873889328,
          -13.178127054690094
        ]
      }
    },
    {
      "type": "Feature",
      "properties": {
        "norad_id": 39160,
        "name": "VNREDSAT 1",
        "group": "resource",
        "lat": -69.59110965645493,
        "lon": -151.57185130347523,
        "alt_km": 685.3858386057882,
        "timestamp": "2025-12-21T11:31:42.498828+00:00",
        "meta_object_name": "VNREDSAT 1",
        "meta_object_id": "2013-021B",
        "meta_epoch": "2025-12-21T03:49:42.894336",
        "meta_mean_motion": 14.64934362,
        "meta_eccentricity": 0.0001185,
        "meta_inclination": 97.9367,
        "meta_ra_of_asc_node": 50.1395,
        "meta_arg_of_pericenter": 82.2796,
        "meta_mean_anomaly": 277.8542,
        "meta_ephemeris_type": 0,
        "meta_classification_type": "U",
        "meta_norad_cat_id": 39160,
        "meta_element_set_no": 999,
        "meta_rev_at_epoch": 67422,
        "meta_bstar": 8.8932e-05,
        "meta_mean_motion_dot": 4.3e-06,
        "meta_mean_motion_ddot": 0,
        "tle_line1": "1 39160U 13021B   25355.15952424  .00000430  00000+0  88932-4 0  9998",
        "tle_line2": "2 39160  97.9367  50.1395 0001185  82.2796 277.8542 14.64934362674222"
      },
      "geometry": {
        "type": "Point",
        "coordinates": [
          -151.57185130347523,
          -69.59110965645493
        ]
      }
    }
  ]
}